IRIDIUM 7               
1 24793U 97020B   25059.88280158  .00001173  00000+0  39891-3 0  9998
2 24793  86.3957 222.2428 0002302  94.5998 265.5461 14.35790142456356
IRIDIUM 5               
1 24795U 97020D   25060.18572707  .00011295  00000+0  96049-3 0  9993
2 24795  86.3917 133.4950 0113017 164.6758 195.7942 14.92816664469371
IRIDIUM 4               
1 24796U 97020E   25059.79517709  .00000959  00000+0  31896-3 0  9994
2 24796  86.3961 219.2286 0002060  96.3633 263.7798 14.36697931456906
IRIDIUM 914             
1 24836U 97030A   25059.89167303  .00001440  00000+0  44490-3 0  9992
2 24836  86.3920 228.1166 0001719 143.0498 217.0820 14.40690324591532
IRIDIUM 16              
1 24841U 97030F   25059.75902583  .00001163  00000+0  37414-3 0  9990
2 24841  86.3980 250.8176 0004165  75.4174 284.7486 14.38541618451413
IRIDIUM 911             
1 24842U 97030G   25059.86444708  .00001661  00000+0  44704-3 0  9996
2 24842  86.4408 249.6549 0016264  97.9604 262.3446 14.47403926459415
IRIDIUM 17              
1 24870U 97034B   25060.16645147  .00001048  00000+0  34269-3 0  9990
2 24870  86.3912 280.2049 0002883  53.2304 306.9158 14.37658416448064
IRIDIUM 920             
1 24871U 97034C   25059.79255496  .00001110  00000+0  33662-3 0  9998
2 24871  86.3917 259.8161 0013587  81.2122 279.0615 14.41359579450962
